[{"OBJECT_NAME":"IRIDE FM8","OBJECT_ID":"2025-276AN","EPOCH":"2026-03-09T18:00:06.771168","MEAN_MOTION":15.18849115,"ECCENTRICITY":0.00041319,"INCLINATION":97.4262,"RA_OF_ASC_NODE":143.9879,"ARG_OF_PERICENTER":23.1376,"MEAN_ANOMALY":337.0044,"EPHEMERIS_TYPE":0,"CLASSIFICATION_TYPE":"U","NORAD_CAT_ID":66702,"ELEMENT_SET_NO":999,"REV_AT_EPOCH":1532,"BSTAR":0.0003807505,"MEAN_MOTION_DOT":7.869e-5,"MEAN_MOTION_DDOT":0},{"OBJECT_NAME":"FALCON 9 DEB","OBJECT_ID":"2021-041BK","EPOCH":"2026-03-09T13:04:15.781440","MEAN_MOTION":15.14721468,"ECCENTRICITY":0.00108412,"INCLINATION":53.0211,"RA_OF_ASC_NODE":167.2269,"ARG_OF_PERICENTER":177.7272,"MEAN_ANOMALY":182.3771,"EPHEMERIS_TYPE":0,"CLASSIFICATION_TYPE":"U","NORAD_CAT_ID":48610,"ELEMENT_SET_NO":999,"REV_AT_EPOCH":26460,"BSTAR":0.00039810006,"MEAN_MOTION_DOT":7.171e-5,"MEAN_MOTION_DDOT":0}]
